NORAD_CAT_ID,OBJECT_NAME,OBJECT_TYPE,EPOCH,MEAN_MOTION,ECCENTRICITY,INCLINATION,RA_OF_ASC_NODE,ARG_OF_PERICENTER,MEAN_ANOMALY,BSTAR,MEAN_MOTION_DOT,MEAN_MOTION_DDOT,TLE_LINE0,TLE_LINE1,TLE_LINE2,SEMIMAJOR_AXIS,PERIOD,APOGEE,PERIGEE,DECAYED
52563.0,STARLINK-3942,PAYLOAD,2024-07-21 12:57:17,15.08851278,0.0001494,53.2178,290.3444,79.6174,280.4987,0.00068781,0.00010679,0.0,0 STARLINK-3942,1 52563U 22051AG  24203.53978665  .00010679  00000-0  68781-3 0  9997,2 52563  53.2178 290.3444 0001494  79.6174 280.4987 15.08851278121442,6917.846,95.437,540.744,538.677,0.0
52563.0,STARLINK-3942,PAYLOAD,2024-07-22 09:37:18,15.08849388,0.0001507,53.2171,286.4784,98.0577,262.0586,0.00041629,6.345e-05,0.0,0 STARLINK-3942,1 52563U 22051AG  24204.40090606  .00006345  00000-0  41629-3 0  9991,2 52563  53.2171 286.4784 0001507  98.0577 262.0586 15.08849388121579,6917.852,95.437,540.759,538.674,0.0
52563.0,STARLINK-3942,PAYLOAD,2024-07-23 12:38:51,15.08855452,0.0001262,53.2152,281.4233,94.2504,265.8632,0.00041377,6.306e-05,0.0,0 STARLINK-3942,1 52563U 22051AG  24205.52697976  .00006306  00000-0  41377-3 0  9995,2 52563  53.2152 281.4233 0001262  94.2504 265.8632 15.08855452121749,6917.833,95.437,540.571,538.825,0.0
52563.0,STARLINK-3942,PAYLOAD,2024-07-24 04:32:43,15.08835051,0.0001016,53.2168,278.4519,86.092,274.0188,-1.5983e-05,-5.42e-06,0.0,0 STARLINK-3942,1 52563U 22051AG  24206.18938759 -.00000542  00000-0 -15983-4 0  9998,2 52563  53.2168 278.4519 0001016  86.0920 274.0188 15.08835051121849,6917.896,95.438,540.463,539.058,0.0
52563.0,STARLINK-3942,PAYLOAD,2024-07-24 09:18:52,15.08833508,0.0001224,53.2152,277.5578,85.3075,274.8057,-5.3046e-06,-3.72e-06,0.0,0 STARLINK-3942,1 52563U 22051AG  24206.38810963 -.00000372  00000-0 -53046-5 0  9990,2 52563  53.2152 277.5578 0001224  85.3075 274.8057 15.08833508121805,6917.9,95.438,540.612,538.918,0.0
52563.0,STARLINK-3942,PAYLOAD,2024-07-25 04:23:30,15.08841033,0.0001398,53.2148,273.9871,111.533,248.5811,0.0002928,4.375e-05,0.0,0 STARLINK-3942,1 52563U 22051AG  24207.18298969  .00004375  00000-0  29280-3 0  9991,2 52563  53.2148 273.9871 0001398 111.5330 248.5811 15.08841033121925,6917.877,95.437,540.709,538.775,0.0
52563.0,STARLINK-3942,PAYLOAD,2024-07-25 12:20:25,15.08851162,0.000164,53.2143,272.4997,107.3284,252.7887,0.00049451,7.593e-05,0.0,0 STARLINK-3942,1 52563U 22051AG  24207.51418632  .00007593  00000-0  49451-3 0  9996,2 52563  53.2143 272.4997 0001640 107.3284 252.7887 15.08851162122042,6917.846,95.437,540.846,538.577,0.0
52563.0,STARLINK-3942,PAYLOAD,2024-07-25 13:55:48,15.08855734,0.000161,53.2139,272.2028,105.4592,254.6578,0.00064136,9.938e-05,0.0,0 STARLINK-3942,1 52563U 22051AG  24207.58042547  .00009938  00000-0  64136-3 0  9993,2 52563  53.2139 272.2028 0001610 105.4592 254.6578 15.08855734121987,6917.832,95.437,540.811,538.584,0.0
52563.0,STARLINK-3942,PAYLOAD,2024-07-26 04:14:17,15.08850966,0.0002017,53.2122,269.5238,98.9331,261.1889,0.00038062,5.776e-05,0.0,0 STARLINK-3942,1 52563U 22051AG  24208.17658651  .00005776  00000-0  38062-3 0  9993,2 52563  53.2122 269.5238 0002017  98.9331 261.1889 15.08850966122149,6917.847,95.437,541.107,538.317,0.0
52563.0,STARLINK-3942,PAYLOAD,2024-07-26 13:46:35,15.08848473,0.0001763,53.2134,267.7432,89.2562,270.8632,0.00018256,2.619e-05,0.0,0 STARLINK-3942,1 52563U 22051AG  24208.57402545  .00002619  00000-0  18256-3 0  9992,2 52563  53.2134 267.7432 0001763  89.2562 270.8632 15.08848473122136,6917.854,95.437,540.939,538.5,0.0
52563.0,STARLINK-3942,PAYLOAD,2024-07-27 10:26:36,15.08844833,0.0001442,53.2161,263.8746,101.2502,258.8653,2.056e-05,3.9e-07,0.0,0 STARLINK-3942,1 52563U 22051AG  24209.43514361  .00000039  00000-0  20560-4 0  9994,2 52563  53.2161 263.8746 0001442 101.2502 258.8653 15.08844833122331,6917.866,95.437,540.728,538.733,0.0
52563.0,STARLINK-3942,PAYLOAD,2024-07-27 13:37:22,15.08843293,0.0001436,53.2162,263.28,100.4185,259.6969,4.1323e-05,3.7e-06,0.0,0 STARLINK-3942,1 52563U 22051AG  24209.56762420  .00000370  00000-0  41323-4 0  9997,2 52563  53.2162 263.2800 0001436 100.4185 259.6969 15.08843293122280,6917.87,95.437,540.729,538.742,0.0
52563.0,STARLINK-3942,PAYLOAD,2024-07-28 11:52:46,15.0884045,0.0001313,53.2159,259.1184,87.6236,272.4907,2.5704e-05,1.21e-06,0.0,0 STARLINK-3942,1 52563U 22051AG  24210.49498829  .00000121  00000-0  25704-4 0  9999,2 52563  53.2159 259.1184 0001313  87.6236 272.4907 15.08840450122492,6917.879,95.438,540.652,538.836,0.0
52563.0,STARLINK-3942,PAYLOAD,2024-07-29 13:18:57,15.08841331,0.0001198,53.2152,254.3619,79.4273,280.6854,5.9698e-05,6.62e-06,0.0,0 STARLINK-3942,1 52563U 22051AG  24211.55482988  .00000662  00000-0  59698-4 0  9995,2 52563  53.2152 254.3619 0001198  79.4273 280.6854 15.08841331122655,6917.876,95.437,540.57,538.913,0.0
52563.0,STARLINK-3942,PAYLOAD,2024-07-29 19:40:29,15.08841709,0.0001198,53.2152,253.1725,79.6858,280.4269,8.3416e-05,1.04e-05,0.0,0 STARLINK-3942,1 52563U 22051AG  24211.81978946  .00001040  00000-0  83416-4 0  9994,2 52563  53.2152 253.1725 0001198  79.6858 280.4269 15.08841709122625,6917.875,95.437,540.569,538.911,0.0
52563.0,STARLINK-3942,PAYLOAD,2024-07-30 11:34:21,15.08842052,0.000133,53.2158,250.2001,87.9241,272.1903,0.00011985,1.62e-05,0.0,0 STARLINK-3942,1 52563U 22051AG  24212.48219119  .00001620  00000-0  11985-3 0  9993,2 52563  53.2158 250.2001 0001330  87.9241 272.1903 15.08842052122728,6917.874,95.437,540.659,538.819,0.0
52563.0,STARLINK-3942,PAYLOAD,2024-07-30 19:31:17,15.08840972,0.0001318,53.2163,248.7132,90.6299,269.4844,6.2788e-05,7.12e-06,0.0,0 STARLINK-3942,1 52563U 22051AG  24212.81339364  .00000712  00000-0  62788-4 0  9994,2 52563  53.2163 248.7132 0001318  90.6299 269.4844 15.08840972122846,6917.877,95.437,540.654,538.831,0.0
52563.0,STARLINK-3942,PAYLOAD,2024-07-31 09:49:45,15.08842926,0.0001405,53.2163,246.037,92.6367,267.4786,9.4323e-05,1.214e-05,0.0,0 STARLINK-3942,1 52563U 22051AG  24213.40955299  .00001214  00000-0  94323-4 0  9999,2 52563  53.2163 246.0370 0001405  92.6367 267.4786 15.08842926122862,6917.871,95.437,540.708,538.764,0.0
52563.0,STARLINK-3942,PAYLOAD,2024-07-31 19:22:04,15.08844869,0.0001509,53.2168,244.2519,84.8911,275.2253,-1.2461e-05,-4.86e-06,0.0,0 STARLINK-3942,1 52563U 22051AG  24213.80699446 -.00000486  00000-0 -12461-4 0  9997,2 52563  53.2168 244.2519 0001509  84.8911 275.2253 15.08844869122926,6917.866,95.437,540.774,538.687,0.0
52563.0,STARLINK-3942,PAYLOAD,2024-08-01 08:05:09,15.08839988,0.0001454,53.2163,241.8705,87.2017,272.9142,5.4119e-05,5.73e-06,0.0,0 STARLINK-3942,1 52563U 22051AG  24214.33691695  .00000573  00000-0  54119-4 0  9995,2 52563  53.2163 241.8705 0001454  87.2017 272.9142 15.08839988123078,6917.88,95.438,540.751,538.74,0.0
52563.0,STARLINK-3942,PAYLOAD,2024-08-02 11:06:42,15.08846279,0.0001295,53.2151,236.816,87.5095,272.6046,0.0001034,1.358e-05,0.0,0 STARLINK-3942,1 52563U 22051AG  24215.46299132  .00001358  00000-0  10340-3 0  9999,2 52563  53.2151 236.8160 0001295  87.5095 272.6046 15.08846279123246,6917.861,95.437,540.622,538.83,0.0
52563.0,STARLINK-3942,PAYLOAD,2024-08-03 04:35:57,15.08841167,0.0001265,53.2147,233.5442,88.4562,271.6575,0.00010948,1.455e-05,0.0,0 STARLINK-3942,1 52563U 22051AG  24216.19163412  .00001455  00000-0  10948-3 0  9993,2 52563  53.2147 233.5442 0001265  88.4562 271.6575 15.08841167123353,6917.877,95.437,540.617,538.867,0.0
52563.0,STARLINK-3942,PAYLOAD,2024-08-03 07:46:43,15.08843809,0.0001252,53.2148,232.9485,91.4181,268.6955,0.00013161,1.808e-05,0.0,0 STARLINK-3942,1 52563U 22051AG  24216.32411186  .00001808  00000-0  13161-3 0  9994,2 52563  53.2148 232.9485 0001252  91.4181 268.6955 15.08843809123309,6917.869,95.437,540.6,538.868,0.0
52563.0,STARLINK-3942,PAYLOAD,2024-08-04 04:26:44,15.08839086,0.0001473,53.2161,229.0842,97.5475,262.5684,2.2272e-05,6.7e-07,0.0,0 STARLINK-3942,1 52563U 22051AG  24217.18523756  .00000067  00000-0  22272-4 0  9996,2 52563  53.2161 229.0842 0001473  97.5475 262.5684 15.08839086123502,6917.883,95.438,540.767,538.729,0.0
52563.0,STARLINK-3942,PAYLOAD,2024-08-04 07:37:30,15.0883955,0.0001455,53.2162,228.4899,95.9899,264.1259,1.4916e-05,-5.1e-07,0.0,0 STARLINK-3942,1 52563U 22051AG  24217.31771713 -.00000051  00000-0  14916-4 0  9999,2 52563  53.2162 228.4899 0001455  95.9899 264.1259 15.08839550123456,6917.882,95.438,540.753,538.74,0.0
52563.0,STARLINK-3942,PAYLOAD,2024-08-05 05:52:54,15.08844958,0.0001395,53.2157,224.3272,95.7836,264.3315,9.1354e-05,1.166e-05,0.0,0 STARLINK-3942,1 52563U 22051AG  24218.24507189  .00001166  00000-0  91354-4 0  9994,2 52563  53.2157 224.3272 0001395  95.7836 264.3315 15.08844958123668,6917.865,95.437,540.695,538.765,0.0
52563.0,STARLINK-3942,PAYLOAD,2024-08-05 17:00:36,15.08836421,0.0001318,53.2157,222.2446,87.4931,272.6212,5.2087e-05,5.41e-06,0.0,0 STARLINK-3942,1 52563U 22051AG  24218.70875801  .00000541  00000-0  52087-4 0  9990,2 52563  53.2157 222.2446 0001318  87.4931 272.6212 15.08836421123739,6917.891,95.438,540.668,538.845,0.0
52563.0,STARLINK-3942,PAYLOAD,2024-08-06 05:43:42,15.08827782,0.0001478,53.2169,219.8705,101.7227,258.3931,1.3452e-05,-7.4e-07,0.0,0 STARLINK-3942,1 52563U 22051AG  24219.23868792 -.00000074  00000-0  13452-4 0  9995,2 52563  53.2169 219.8705 0001478 101.7227 258.3931 15.08827782123815,6917.918,95.438,540.805,538.76,0.0
52563.0,STARLINK-3942,PAYLOAD,2024-08-06 07:19:05,15.08827462,0.0001457,53.2166,219.5723,100.4571,259.6585,5.8698e-06,-1.95e-06,0.0,0 STARLINK-3942,1 52563U 22051AG  24219.30492860 -.00000195  00000-0  58698-5 0  9998,2 52563  53.2166 219.5723 0001457 100.4571 259.6585 15.08827462123751,6917.919,95.438,540.792,538.776,0.0
52563.0,STARLINK-3942,PAYLOAD,2024-08-06 16:51:24,15.0883454,0.0001467,53.2167,217.7879,101.8127,258.3029,2.9821e-05,1.87e-06,0.0,0 STARLINK-3942,1 52563U 22051AG  24219.70236529  .00000187  00000-0  29821-4 0  9995,2 52563  53.2167 217.7879 0001467 101.8127 258.3029 15.08834540123885,6917.897,95.438,540.777,538.747,0.0
